[
  {
    "name": "ONEWEB-0012",
    "noradId": "44057",
    "line1": "1 44057U 19010A   26200.09588730 -.00000072  00000+0 -22217-3 0  9998",
    "line2": "2 44057  87.9073 222.4464 0001679  95.5254 264.6069 13.16593717355765"
  },
  {
    "name": "ONEWEB-0010",
    "noradId": "44058",
    "line1": "1 44058U 19010B   26200.12123955  .00000081  00000+0  17859-3 0  9991",
    "line2": "2 44058  87.9076 222.4378 0002309  98.6313 261.5080 13.16593483355819"
  },
  {
    "name": "ONEWEB-0008",
    "noradId": "44059",
    "line1": "1 44059U 19010C   26200.14656800 -.00000020  00000+0 -87133-4 0  9992",
    "line2": "2 44059  87.9080 222.4277 0002091  85.9117 274.2253 13.16593411355939"
  },
  {
    "name": "ONEWEB-0007",
    "noradId": "44060",
    "line1": "1 44060U 19010D   26200.20707075  .00000198  00000+0  49172-3 0  9996",
    "line2": "2 44060  87.8976 252.8406 0002016 106.9716 253.1636 13.15548198355584"
  },
  {
    "name": "ONEWEB-0006",
    "noradId": "44061",
    "line1": "1 44061U 19010E   26200.21100752  .00000180  00000+0  44527-3 0  9997",
    "line2": "2 44061  87.8990 252.8075 0002202  96.6618 263.4763 13.15550981355630"
  },
  {
    "name": "ONEWEB-0011",
    "noradId": "44062",
    "line1": "1 44062U 19010F   26200.17932094 -.00000118  00000+0 -34824-3 0  9997",
    "line2": "2 44062  87.8995 252.8245 0002255  94.7948 265.3440 13.15549839355620"
  },
  {
    "name": "ONEWEB-0013",
    "noradId": "45131",
    "line1": "1 45131U 20008A   26200.10976613  .00000543  00000+0  15403-2 0  9993",
    "line2": "2 45131  87.8487  46.3794 0000823  74.7983 285.3235 13.09457049310242"
  },
  {
    "name": "ONEWEB-0017",
    "noradId": "45132",
    "line1": "1 45132U 20008B   26200.06991469  .00000259  00000+0  70452-3 0  9995",
    "line2": "2 45132  87.8810  29.9138 0002026  91.5425 268.5934 13.10371958312121"
  },
  {
    "name": "ONEWEB-0020",
    "noradId": "45133",
    "line1": "1 45133U 20008C   26200.26843584 -.00000007  00000+0 -56144-4 0  9998",
    "line2": "2 45133  87.8824  29.8740 0001845  87.8418 272.2921 13.10374798312542"
  },
  {
    "name": "ONEWEB-0021",
    "noradId": "45134",
    "line1": "1 45134U 20008D   26200.05463916  .00000635  00000+0  17814-2 0  9997",
    "line2": "2 45134  87.8805  29.9324 0001909  85.0277 275.1068 13.10372559312823"
  },
  {
    "name": "ONEWEB-0023",
    "noradId": "45136",
    "line1": "1 45136U 20008F   26200.06567023  .00000450  00000+0  12524-2 0  9992",
    "line2": "2 45136  87.8818  29.9128 0001766  83.0398 277.0930 13.10369444312259"
  },
  {
    "name": "ONEWEB-0024",
    "noradId": "45137",
    "line1": "1 45137U 20008G   26200.03779562  .00000072  00000+0  17000-3 0  9998",
    "line2": "2 45137  87.8830  29.9123 0001853  90.0599 270.0741 13.10375284312417"
  },
  {
    "name": "ONEWEB-0025",
    "noradId": "45138",
    "line1": "1 45138U 20008H   26200.26659196 -.00000056  00000+0 -19646-3 0  9996",
    "line2": "2 45138  87.8831  29.8564 0002155  79.1598 280.9772 13.10376027312779"
  },
  {
    "name": "ONEWEB-0026",
    "noradId": "45139",
    "line1": "1 45139U 20008J   26200.20320224 -.00000504  00000+0 -14587-2 0  9994",
    "line2": "2 45139  87.8886  14.6921 0001985  91.8395 268.2960 13.11416735315307"
  },
  {
    "name": "ONEWEB-0028",
    "noradId": "45140",
    "line1": "1 45140U 20008K   26200.17863458  .00000311  00000+0  84252-3 0  9994",
    "line2": "2 45140  87.8881  14.7043 0001265  88.9413 271.1860 13.11414670312810"
  },
  {
    "name": "ONEWEB-0032",
    "noradId": "45141",
    "line1": "1 45141U 20008L   26200.22446706  .00000262  00000+0  71427-3 0  9999",
    "line2": "2 45141  87.8813  29.8851 0001398  80.7637 279.3649 13.10370033312497"
  },
  {
    "name": "ONEWEB-0033",
    "noradId": "45142",
    "line1": "1 45142U 20008M   26200.27522698  .00000368  00000+0  10179-2 0  9993",
    "line2": "2 45142  87.8813  29.8808 0002316  95.1336 265.0055 13.10374324312419"
  },
  {
    "name": "ONEWEB-0035",
    "noradId": "45143",
    "line1": "1 45143U 20008N   26200.21936404  .00000442  00000+0  12292-2 0  9993",
    "line2": "2 45143  87.8812  29.8854 0001847  91.0361 269.0978 13.10374230312134"
  },
  {
    "name": "ONEWEB-0036",
    "noradId": "45144",
    "line1": "1 45144U 20008P   26200.04434050  .00000396  00000+0  10987-2 0  9992",
    "line2": "2 45144  87.8833  29.9382 0001683  84.2278 275.9042 13.10376894312534"
  },
  {
    "name": "ONEWEB-0038",
    "noradId": "45145",
    "line1": "1 45145U 20008Q   26200.21351643 -.00000440  00000+0 -12775-2 0  9997",
    "line2": "2 45145  87.8902  14.7038 0002273 139.0093 221.1207 13.11417696314526"
  },
  {
    "name": "ONEWEB-0039",
    "noradId": "45146",
    "line1": "1 45146U 20008R   26200.27862506  .00000549  00000+0  15360-2 0  9990",
    "line2": "2 45146  87.8821  29.8712 0001318  87.7503 272.3776 13.10374227312367"
  },
  {
    "name": "ONEWEB-0040",
    "noradId": "45147",
    "line1": "1 45147U 20008S   26200.04275195  .00000305  00000+0  83836-3 0  9992",
    "line2": "2 45147  87.8819  29.9286 0001803  78.6183 281.5147 13.10374964312030"
  },
  {
    "name": "ONEWEB-0043",
    "noradId": "45149",
    "line1": "1 45149U 20008U   26200.04458480  .00000392  00000+0  10854-2 0  9999",
    "line2": "2 45149  87.8824  29.9179 0001302  84.0973 276.0303 13.10377967312355"
  },
  {
    "name": "ONEWEB-0044",
    "noradId": "45150",
    "line1": "1 45150U 20008V   26200.07330325  .00000064  00000+0  14724-3 0  9998",
    "line2": "2 45150  87.8822  29.9139 0001690  86.2493 273.8828 13.10372623312656"
  },
  {
    "name": "ONEWEB-0045",
    "noradId": "45151",
    "line1": "1 45151U 20008W   26200.20828910 -.00000538  00000+0 -15534-2 0  9993",
    "line2": "2 45151  87.8893  14.6857 0001708  93.2260 266.9064 13.11417042314601"
  },
  {
    "name": "ONEWEB-0047",
    "noradId": "45152",
    "line1": "1 45152U 20008X   26200.21909495  .00000399  00000+0  11055-2 0  9990",
    "line2": "2 45152  87.8821  29.8841 0001979  94.9718 265.1636 13.10369692312396"
  },
  {
    "name": "ONEWEB-0048",
    "noradId": "45153",
    "line1": "1 45153U 20008Y   26200.06143811  .00000532  00000+0  14891-2 0  9996",
    "line2": "2 45153  87.8813  29.9338 0001753  93.4019 266.7309 13.10372319311986"
  },
  {
    "name": "ONEWEB-0049",
    "noradId": "45154",
    "line1": "1 45154U 20008Z   26200.21739175  .00000532  00000+0  14876-2 0  9991",
    "line2": "2 45154  87.8810  29.8918 0001861  75.2816 284.8517 13.10370265312228"
  },
  {
    "name": "ONEWEB-0051",
    "noradId": "45155",
    "line1": "1 45155U 20008AA  26200.20659167 -.00000576  00000+0 -16605-2 0  9995",
    "line2": "2 45155  87.8891  14.6914 0001802  91.6133 268.5202 13.11417531315283"
  },
  {
    "name": "ONEWEB-0052",
    "noradId": "45156",
    "line1": "1 45156U 20008AB  26200.08531210 -.00000525  00000+0 -15407-2 0  9993",
    "line2": "2 45156  87.8815  29.9066 0001701  76.5888 283.5429 13.10372320312116"
  }
]